ELYSIUM STAR 2 & LFF    
1 43760U 18099C   24165.74566725  .00033383  00000+0  13025-2 0  9999
2 43760  97.5162 233.3261 0005258 268.9174  91.1462 15.25837793302715
